[{"OBJECT_NAME":"OBJECT J","OBJECT_ID":"2024-205J","EPOCH":"2026-03-09T23:28:57.561600","MEAN_MOTION":15.10710806,"ECCENTRICITY":0.00148701,"INCLINATION":97.4211,"RA_OF_ASC_NODE":142.3026,"ARG_OF_PERICENTER":147.8528,"MEAN_ANOMALY":212.3612,"EPHEMERIS_TYPE":0,"CLASSIFICATION_TYPE":"U","NORAD_CAT_ID":61902,"ELEMENT_SET_NO":999,"REV_AT_EPOCH":7320,"BSTAR":0.00056466438,"MEAN_MOTION_DOT":9.322e-5,"MEAN_MOTION_DDOT":0},{"OBJECT_NAME":"STARLINK-33778","OBJECT_ID":"2025-094P","EPOCH":"2026-03-09T21:36:57.111264","MEAN_MOTION":15.00368707,"ECCENTRICITY":0.00046794,"INCLINATION":70.0014,"RA_OF_ASC_NODE":233.9626,"ARG_OF_PERICENTER":283.7063,"MEAN_ANOMALY":76.3576,"EPHEMERIS_TYPE":0,"CLASSIFICATION_TYPE":"U","NORAD_CAT_ID":63877,"ELEMENT_SET_NO":999,"REV_AT_EPOCH":4723,"BSTAR":0.077170439,"MEAN_MOTION_DOT":0.01050264,"MEAN_MOTION_DDOT":0}]
